ONEWEB-0638             
1 55802U 23029G   26151.87550775 -.00000235  00000+0 -66838-3 0  9990
2 55802  87.8941 293.0056 0002122  84.3014 275.8358 13.14501808157250
ONEWEB-0639             
1 55803U 23029H   26152.41365847  .00000079  00000+0  16472-3 0  9999
2 55803  87.9155 308.1195 0000802  86.6606 273.4618 13.19726757156828
ONEWEB-0640             
1 55804U 23029J   26152.34172728 -.00000159  00000+0 -46467-3 0  9994
2 55804  87.8940 292.9032 0001824  76.3540 283.7793 13.14502031157335
ONEWEB-0641             
1 55805U 23029K   26152.48472575  .00000006  00000+0 -17480-4 0  9997
2 55805  87.9161 308.0936 0001629  96.7668 263.3650 13.19727050156840
ONEWEB-0642             
1 55806U 23029L   26152.47999151  .00000059  00000+0  11486-3 0  9997
2 55806  87.9156 308.1076 0000989 104.6792 255.4450 13.19726308156830
ONEWEB-0643             
1 55807U 23029M   26152.38772642  .00000213  00000+0  53950-3 0  9996
2 55807  87.8941 292.8814 0001346 116.2289 243.8980 13.14502494157315
ONEWEB-0644             
1 55808U 23029N   26152.47523797  .00000977  00000+0  24069-2 0  9997
2 55808  87.9149 308.1107 0001631 101.5628 258.5688 13.19720794156838
ONEWEB-0645             
1 55809U 23029P   26152.42154130 -.00000026  00000+0 -98064-4 0  9999
2 55809  87.9153 308.1180 0001453  82.6041 277.5257 13.19727203156829
ONEWEB-0646             
1 55810U 23029Q   26152.43893137  .00000212  00000+0  49696-3 0  9990
2 55810  87.9155 308.1142 0001577 101.3974 258.7336 13.19727089156812
ONEWEB-0648             
1 55811U 23029R   26152.43211560 -.00000064  00000+0 -20587-3 0  9990
2 55811  87.8949 292.8443 0001011  80.2908 279.8336 13.14504409157326
ONEWEB-0649             
1 55812U 23029S   26152.46419442  .00000059  00000+0  11537-3 0  9990
2 55812  87.9155 308.1074 0001545  90.7830 269.3480 13.19726959156852
ONEWEB-0650             
1 55813U 23029T   26152.45946001  .00000047  00000+0  84069-4 0  9994
2 55813  87.9154 308.1108 0001342  98.5027 261.6257 13.19726653156824
ONEWEB-0652             
1 55814U 23029U   26152.33697216 -.00000207  00000+0 -59244-3 0  9999
2 55814  87.8946 292.8715 0001992  99.5523 260.5832 13.14503729157289
ONEWEB-0653             
1 55815U 23029V   26152.32111154  .00000047  00000+0  92450-4 0  9998
2 55815  87.8951 292.8719 0001898  96.3787 263.7559 13.14502297157316
ONEWEB-0654             
1 55816U 23029W   26152.31636166  .00000090  00000+0  20832-3 0  9995
2 55816  87.8950 292.8693 0002178  95.1404 264.9974 13.14503131157336
ONEWEB-0656             
1 55817U 23029X   26152.29549381  .00000101  00000+0  21740-3 0  9997
2 55817  87.9187 277.5970 0002348  98.5675 261.5725 13.20772076159055
