[{"OBJECT_NAME":"ONEWEB-0638","OBJECT_ID":"2023-029G","EPOCH":"2026-05-31T21:00:43.869600","MEAN_MOTION":13.14501808,"ECCENTRICITY":0.0002122,"INCLINATION":87.8941,"RA_OF_ASC_NODE":293.0056,"ARG_OF_PERICENTER":84.3014,"MEAN_ANOMALY":275.8358,"EPHEMERIS_TYPE":0,"CLASSIFICATION_TYPE":"U","NORAD_CAT_ID":55802,"ELEMENT_SET_NO":999,"REV_AT_EPOCH":15725,"BSTAR":-0.00066838,"MEAN_MOTION_DOT":-2.35e-06,"MEAN_MOTION_DDOT":0.0},{"OBJECT_NAME":"ONEWEB-0639","OBJECT_ID":"2023-029H","EPOCH":"2026-06-01T09:55:40.091808","MEAN_MOTION":13.19726757,"ECCENTRICITY":8.02e-05,"INCLINATION":87.9155,"RA_OF_ASC_NODE":308.1195,"ARG_OF_PERICENTER":86.6606,"MEAN_ANOMALY":273.4618,"EPHEMERIS_TYPE":0,"CLASSIFICATION_TYPE":"U","NORAD_CAT_ID":55803,"ELEMENT_SET_NO":999,"REV_AT_EPOCH":15682,"BSTAR":0.00016472,"MEAN_MOTION_DOT":7.9e-07,"MEAN_MOTION_DDOT":0.0},{"OBJECT_NAME":"ONEWEB-0640","OBJECT_ID":"2023-029J","EPOCH":"2026-06-01T08:12:05.236992","MEAN_MOTION":13.14502031,"ECCENTRICITY":0.0001824,"INCLINATION":87.894,"RA_OF_ASC_NODE":292.9032,"ARG_OF_PERICENTER":76.354,"MEAN_ANOMALY":283.7793,"EPHEMERIS_TYPE":0,"CLASSIFICATION_TYPE":"U","NORAD_CAT_ID":55804,"ELEMENT_SET_NO":999,"REV_AT_EPOCH":15733,"BSTAR":-0.00046467000000000004,"MEAN_MOTION_DOT":-1.59e-06,"MEAN_MOTION_DDOT":0.0},{"OBJECT_NAME":"ONEWEB-0641","OBJECT_ID":"2023-029K","EPOCH":"2026-06-01T11:38:00.304800","MEAN_MOTION":13.1972705,"ECCENTRICITY":0.0001629,"INCLINATION":87.9161,"RA_OF_ASC_NODE":308.0936,"ARG_OF_PERICENTER":96.7668,"MEAN_ANOMALY":263.365,"EPHEMERIS_TYPE":0,"CLASSIFICATION_TYPE":"U","NORAD_CAT_ID":55805,"ELEMENT_SET_NO":999,"REV_AT_EPOCH":15684,"BSTAR":-1.7480000000000002e-05,"MEAN_MOTION_DOT":6e-08,"MEAN_MOTION_DDOT":0.0},{"OBJECT_NAME":"ONEWEB-0642","OBJECT_ID":"2023-029L","EPOCH":"2026-06-01T11:31:11.266464","MEAN_MOTION":13.19726308,"ECCENTRICITY":9.89e-05,"INCLINATION":87.9156,"RA_OF_ASC_NODE":308.1076,"ARG_OF_PERICENTER":104.6792,"MEAN_ANOMALY":255.445,"EPHEMERIS_TYPE":0,"CLASSIFICATION_TYPE":"U","NORAD_CAT_ID":55806,"ELEMENT_SET_NO":999,"REV_AT_EPOCH":15683,"BSTAR":0.00011486000000000001,"MEAN_MOTION_DOT":5.9e-07,"MEAN_MOTION_DDOT":0.0},{"OBJECT_NAME":"ONEWEB-0643","OBJECT_ID":"2023-029M","EPOCH":"2026-06-01T09:18:19.562688","MEAN_MOTION":13.14502494,"ECCENTRICITY":0.0001346,"INCLINATION":87.8941,"RA_OF_ASC_NODE":292.8814,"ARG_OF_PERICENTER":116.2289,"MEAN_ANOMALY":243.898,"EPHEMERIS_TYPE":0,"CLASSIFICATION_TYPE":"U","NORAD_CAT_ID":55807,"ELEMENT_SET_NO":999,"REV_AT_EPOCH":15731,"BSTAR":0.0005394999999999999,"MEAN_MOTION_DOT":2.13e-06,"MEAN_MOTION_DDOT":0.0},{"OBJECT_NAME":"ONEWEB-0644","OBJECT_ID":"2023-029N","EPOCH":"2026-06-01T11:24:20.560608","MEAN_MOTION":13.19720794,"ECCENTRICITY":0.0001631,"INCLINATION":87.9149,"RA_OF_ASC_NODE":308.1107,"ARG_OF_PERICENTER":101.5628,"MEAN_ANOMALY":258.5688,"EPHEMERIS_TYPE":0,"CLASSIFICATION_TYPE":"U","NORAD_CAT_ID":55808,"ELEMENT_SET_NO":999,"REV_AT_EPOCH":15683,"BSTAR":0.0024069,"MEAN_MOTION_DOT":9.77e-06,"MEAN_MOTION_DDOT":0.0},{"OBJECT_NAME":"ONEWEB-0645","OBJECT_ID":"2023-029P","EPOCH":"2026-06-01T10:07:01.168320","MEAN_MOTION":13.19727203,"ECCENTRICITY":0.0001453,"INCLINATION":87.9153,"RA_OF_ASC_NODE":308.118,"ARG_OF_PERICENTER":82.6041,"MEAN_ANOMALY":277.5257,"EPHEMERIS_TYPE":0,"CLASSIFICATION_TYPE":"U","NORAD_CAT_ID":55809,"ELEMENT_SET_NO":999,"REV_AT_EPOCH":15682,"BSTAR":-9.8064e-05,"MEAN_MOTION_DOT":-2.6e-07,"MEAN_MOTION_DDOT":0.0},{"OBJECT_NAME":"ONEWEB-0646","OBJECT_ID":"2023-029Q","EPOCH":"2026-06-01T10:32:03.670368","MEAN_MOTION":13.19727089,"ECCENTRICITY":0.0001577,"INCLINATION":87.9155,"RA_OF_ASC_NODE":308.1142,"ARG_OF_PERICENTER":101.3974,"MEAN_ANOMALY":258.7336,"EPHEMERIS_TYPE":0,"CLASSIFICATION_TYPE":"U","NORAD_CAT_ID":55810,"ELEMENT_SET_NO":999,"REV_AT_EPOCH":15681,"BSTAR":0.0004969600000000001,"MEAN_MOTION_DOT":2.12e-06,"MEAN_MOTION_DDOT":0.0},{"OBJECT_NAME":"ONEWEB-0648","OBJECT_ID":"2023-029R","EPOCH":"2026-06-01T10:22:14.787840","MEAN_MOTION":13.14504409,"ECCENTRICITY":0.0001011,"INCLINATION":87.8949,"RA_OF_ASC_NODE":292.8443,"ARG_OF_PERICENTER":80.2908,"MEAN_ANOMALY":279.8336,"EPHEMERIS_TYPE":0,"CLASSIFICATION_TYPE":"U","NORAD_CAT_ID":55811,"ELEMENT_SET_NO":999,"REV_AT_EPOCH":15732,"BSTAR":-0.00020587,"MEAN_MOTION_DOT":-6.4e-07,"MEAN_MOTION_DDOT":0.0},{"OBJECT_NAME":"ONEWEB-0649","OBJECT_ID":"2023-029S","EPOCH":"2026-06-01T11:08:26.397888","MEAN_MOTION":13.19726959,"ECCENTRICITY":0.0001545,"INCLINATION":87.9155,"RA_OF_ASC_NODE":308.1074,"ARG_OF_PERICENTER":90.783,"MEAN_ANOMALY":269.348,"EPHEMERIS_TYPE":0,"CLASSIFICATION_TYPE":"U","NORAD_CAT_ID":55812,"ELEMENT_SET_NO":999,"REV_AT_EPOCH":15685,"BSTAR":0.00011537,"MEAN_MOTION_DOT":5.9e-07,"MEAN_MOTION_DDOT":0.0},{"OBJECT_NAME":"ONEWEB-0650","OBJECT_ID":"2023-029T","EPOCH":"2026-06-01T11:01:37.344864","MEAN_MOTION":13.19726653,"ECCENTRICITY":0.0001342,"INCLINATION":87.9154,"RA_OF_ASC_NODE":308.1108,"ARG_OF_PERICENTER":98.5027,"MEAN_ANOMALY":261.6257,"EPHEMERIS_TYPE":0,"CLASSIFICATION_TYPE":"U","NORAD_CAT_ID":55813,"ELEMENT_SET_NO":999,"REV_AT_EPOCH":15682,"BSTAR":8.406900000000001e-05,"MEAN_MOTION_DOT":4.7e-07,"MEAN_MOTION_DDOT":0.0},{"OBJECT_NAME":"ONEWEB-0652","OBJECT_ID":"2023-029U","EPOCH":"2026-06-01T08:05:14.394624","MEAN_MOTION":13.14503729,"ECCENTRICITY":0.0001992,"INCLINATION":87.8946,"RA_OF_ASC_NODE":292.8715,"ARG_OF_PERICENTER":99.5523,"MEAN_ANOMALY":260.5832,"EPHEMERIS_TYPE":0,"CLASSIFICATION_TYPE":"U","NORAD_CAT_ID":55814,"ELEMENT_SET_NO":999,"REV_AT_EPOCH":15728,"BSTAR":-0.00059244,"MEAN_MOTION_DOT":-2.07e-06,"MEAN_MOTION_DDOT":0.0},{"OBJECT_NAME":"ONEWEB-0653","OBJECT_ID":"2023-029V","EPOCH":"2026-06-01T07:42:24.037056","MEAN_MOTION":13.14502297,"ECCENTRICITY":0.0001898,"INCLINATION":87.8951,"RA_OF_ASC_NODE":292.8719,"ARG_OF_PERICENTER":96.3787,"MEAN_ANOMALY":263.7559,"EPHEMERIS_TYPE":0,"CLASSIFICATION_TYPE":"U","NORAD_CAT_ID":55815,"ELEMENT_SET_NO":999,"REV_AT_EPOCH":15731,"BSTAR":9.245e-05,"MEAN_MOTION_DOT":4.7e-07,"MEAN_MOTION_DDOT":0.0},{"OBJECT_NAME":"ONEWEB-0654","OBJECT_ID":"2023-029W","EPOCH":"2026-06-01T07:35:33.647424","MEAN_MOTION":13.14503131,"ECCENTRICITY":0.0002178,"INCLINATION":87.895,"RA_OF_ASC_NODE":292.8693,"ARG_OF_PERICENTER":95.1404,"MEAN_ANOMALY":264.9974,"EPHEMERIS_TYPE":0,"CLASSIFICATION_TYPE":"U","NORAD_CAT_ID":55816,"ELEMENT_SET_NO":999,"REV_AT_EPOCH":15733,"BSTAR":0.00020832,"MEAN_MOTION_DOT":9e-07,"MEAN_MOTION_DDOT":0.0},{"OBJECT_NAME":"ONEWEB-0656","OBJECT_ID":"2023-029X","EPOCH":"2026-06-01T07:05:30.665184","MEAN_MOTION":13.20772076,"ECCENTRICITY":0.0002348,"INCLINATION":87.9187,"RA_OF_ASC_NODE":277.597,"ARG_OF_PERICENTER":98.5675,"MEAN_ANOMALY":261.5725,"EPHEMERIS_TYPE":0,"CLASSIFICATION_TYPE":"U","NORAD_CAT_ID":55817,"ELEMENT_SET_NO":999,"REV_AT_EPOCH":15905,"BSTAR":0.00021740000000000003,"MEAN_MOTION_DOT":1.01e-06,"MEAN_MOTION_DDOT":0.0}]